[{"OBJECT_NAME":"ONEWEB-0229","OBJECT_ID":"2021-045N","EPOCH":"2026-05-04T02:24:52.746336","MEAN_MOTION":13.15550055,"ECCENTRICITY":0.0001935,"INCLINATION":87.897,"RA_OF_ASC_NODE":267.9773,"ARG_OF_PERICENTER":95.392,"MEAN_ANOMALY":264.7431,"EPHEMERIS_TYPE":0,"CLASSIFICATION_TYPE":"U","NORAD_CAT_ID":48779,"ELEMENT_SET_NO":999,"REV_AT_EPOCH":23861,"BSTAR":2.2257e-05,"MEAN_MOTION_DOT":2.1e-07,"MEAN_MOTION_DDOT":0.0},{"OBJECT_NAME":"ONEWEB-0228","OBJECT_ID":"2021-045P","EPOCH":"2026-05-04T03:13:00.776064","MEAN_MOTION":13.15548261,"ECCENTRICITY":0.0001811,"INCLINATION":87.8978,"RA_OF_ASC_NODE":267.9602,"ARG_OF_PERICENTER":94.8245,"MEAN_ANOMALY":265.3092,"EPHEMERIS_TYPE":0,"CLASSIFICATION_TYPE":"U","NORAD_CAT_ID":48780,"ELEMENT_SET_NO":999,"REV_AT_EPOCH":23853,"BSTAR":-5.014100000000001e-05,"MEAN_MOTION_DOT":-6e-08,"MEAN_MOTION_DDOT":0.0},{"OBJECT_NAME":"ONEWEB-0232","OBJECT_ID":"2021-045Q","EPOCH":"2026-05-04T02:36:18.370944","MEAN_MOTION":13.15548757,"ECCENTRICITY":0.0001755,"INCLINATION":87.8977,"RA_OF_ASC_NODE":267.9673,"ARG_OF_PERICENTER":97.326,"MEAN_ANOMALY":262.807,"EPHEMERIS_TYPE":0,"CLASSIFICATION_TYPE":"U","NORAD_CAT_ID":48781,"ELEMENT_SET_NO":999,"REV_AT_EPOCH":23885,"BSTAR":-0.00035207,"MEAN_MOTION_DOT":-1.2e-06,"MEAN_MOTION_DDOT":0.0},{"OBJECT_NAME":"ONEWEB-0231","OBJECT_ID":"2021-045R","EPOCH":"2026-05-04T03:53:52.774368","MEAN_MOTION":13.15549627,"ECCENTRICITY":0.0001756,"INCLINATION":87.8962,"RA_OF_ASC_NODE":267.9741,"ARG_OF_PERICENTER":89.4889,"MEAN_ANOMALY":270.6443,"EPHEMERIS_TYPE":0,"CLASSIFICATION_TYPE":"U","NORAD_CAT_ID":48782,"ELEMENT_SET_NO":999,"REV_AT_EPOCH":23855,"BSTAR":0.00042698000000000004,"MEAN_MOTION_DOT":1.74e-06,"MEAN_MOTION_DDOT":0.0},{"OBJECT_NAME":"ONEWEB-0234","OBJECT_ID":"2021-045S","EPOCH":"2026-05-04T02:58:54.005952","MEAN_MOTION":13.15549743,"ECCENTRICITY":0.0001115,"INCLINATION":87.8968,"RA_OF_ASC_NODE":267.9611,"ARG_OF_PERICENTER":117.9156,"MEAN_ANOMALY":242.2088,"EPHEMERIS_TYPE":0,"CLASSIFICATION_TYPE":"U","NORAD_CAT_ID":48783,"ELEMENT_SET_NO":999,"REV_AT_EPOCH":23868,"BSTAR":-0.00050182,"MEAN_MOTION_DOT":-1.76e-06,"MEAN_MOTION_DDOT":0.0},{"OBJECT_NAME":"ONEWEB-0238","OBJECT_ID":"2021-045T","EPOCH":"2026-05-04T02:59:19.862880","MEAN_MOTION":13.15547391,"ECCENTRICITY":0.0001441,"INCLINATION":87.8972,"RA_OF_ASC_NODE":267.9533,"ARG_OF_PERICENTER":106.155,"MEAN_ANOMALY":253.9739,"EPHEMERIS_TYPE":0,"CLASSIFICATION_TYPE":"U","NORAD_CAT_ID":48784,"ELEMENT_SET_NO":999,"REV_AT_EPOCH":23858,"BSTAR":-0.00047976000000000003,"MEAN_MOTION_DOT":-1.68e-06,"MEAN_MOTION_DDOT":0.0},{"OBJECT_NAME":"ONEWEB-0240","OBJECT_ID":"2021-045U","EPOCH":"2026-05-04T03:29:55.576032","MEAN_MOTION":13.15547865,"ECCENTRICITY":0.00016,"INCLINATION":87.8976,"RA_OF_ASC_NODE":267.9593,"ARG_OF_PERICENTER":88.5782,"MEAN_ANOMALY":271.5531,"EPHEMERIS_TYPE":0,"CLASSIFICATION_TYPE":"U","NORAD_CAT_ID":48785,"ELEMENT_SET_NO":999,"REV_AT_EPOCH":23861,"BSTAR":0.00026658,"MEAN_MOTION_DOT":1.13e-06,"MEAN_MOTION_DDOT":0.0},{"OBJECT_NAME":"ONEWEB-0246","OBJECT_ID":"2021-045V","EPOCH":"2026-05-04T03:21:56.405088","MEAN_MOTION":13.1554844,"ECCENTRICITY":0.0001938,"INCLINATION":87.8971,"RA_OF_ASC_NODE":267.9662,"ARG_OF_PERICENTER":96.0049,"MEAN_ANOMALY":264.1302,"EPHEMERIS_TYPE":0,"CLASSIFICATION_TYPE":"U","NORAD_CAT_ID":48786,"ELEMENT_SET_NO":999,"REV_AT_EPOCH":23848,"BSTAR":-1.9038e-05,"MEAN_MOTION_DOT":6e-08,"MEAN_MOTION_DDOT":0.0},{"OBJECT_NAME":"ONEWEB-0210","OBJECT_ID":"2021-045W","EPOCH":"2026-05-04T02:45:26.089056","MEAN_MOTION":13.15548061,"ECCENTRICITY":0.0002558,"INCLINATION":87.8973,"RA_OF_ASC_NODE":267.9681,"ARG_OF_PERICENTER":83.5687,"MEAN_ANOMALY":276.5734,"EPHEMERIS_TYPE":0,"CLASSIFICATION_TYPE":"U","NORAD_CAT_ID":48787,"ELEMENT_SET_NO":999,"REV_AT_EPOCH":23852,"BSTAR":-0.00048482,"MEAN_MOTION_DOT":-1.7e-06,"MEAN_MOTION_DDOT":0.0},{"OBJECT_NAME":"ONEWEB-0214","OBJECT_ID":"2021-045X","EPOCH":"2026-05-04T02:57:58.690944","MEAN_MOTION":13.15547441,"ECCENTRICITY":0.0002205,"INCLINATION":87.8971,"RA_OF_ASC_NODE":267.9628,"ARG_OF_PERICENTER":94.5578,"MEAN_ANOMALY":265.5805,"EPHEMERIS_TYPE":0,"CLASSIFICATION_TYPE":"U","NORAD_CAT_ID":48788,"ELEMENT_SET_NO":999,"REV_AT_EPOCH":23849,"BSTAR":-0.00040584,"MEAN_MOTION_DOT":-1.4e-06,"MEAN_MOTION_DDOT":0.0},{"OBJECT_NAME":"ONEWEB-0221","OBJECT_ID":"2021-045Y","EPOCH":"2026-05-04T03:08:14.069760","MEAN_MOTION":13.15549017,"ECCENTRICITY":0.0001822,"INCLINATION":87.8971,"RA_OF_ASC_NODE":267.9707,"ARG_OF_PERICENTER":91.4907,"MEAN_ANOMALY":268.6431,"EPHEMERIS_TYPE":0,"CLASSIFICATION_TYPE":"U","NORAD_CAT_ID":48789,"ELEMENT_SET_NO":999,"REV_AT_EPOCH":23858,"BSTAR":-0.00031914,"MEAN_MOTION_DOT":-1.07e-06,"MEAN_MOTION_DDOT":0.0},{"OBJECT_NAME":"ONEWEB-0213","OBJECT_ID":"2021-045Z","EPOCH":"2026-05-04T02:52:16.253184","MEAN_MOTION":13.15548774,"ECCENTRICITY":0.0001948,"INCLINATION":87.897,"RA_OF_ASC_NODE":267.9763,"ARG_OF_PERICENTER":89.0745,"MEAN_ANOMALY":271.0608,"EPHEMERIS_TYPE":0,"CLASSIFICATION_TYPE":"U","NORAD_CAT_ID":48790,"ELEMENT_SET_NO":999,"REV_AT_EPOCH":23864,"BSTAR":-0.00028309,"MEAN_MOTION_DOT":-9.4e-07,"MEAN_MOTION_DDOT":0.0},{"OBJECT_NAME":"ONEWEB-0212","OBJECT_ID":"2021-045AA","EPOCH":"2026-05-03T20:50:36.773952","MEAN_MOTION":13.15546648,"ECCENTRICITY":0.0001791,"INCLINATION":87.8971,"RA_OF_ASC_NODE":268.0209,"ARG_OF_PERICENTER":98.8216,"MEAN_ANOMALY":261.3118,"EPHEMERIS_TYPE":0,"CLASSIFICATION_TYPE":"U","NORAD_CAT_ID":48791,"ELEMENT_SET_NO":999,"REV_AT_EPOCH":23860,"BSTAR":-8.5739e-05,"MEAN_MOTION_DOT":-1.9e-07,"MEAN_MOTION_DDOT":0.0},{"OBJECT_NAME":"ONEWEB-0227","OBJECT_ID":"2021-045AB","EPOCH":"2026-05-03T20:49:27.336864","MEAN_MOTION":13.15549517,"ECCENTRICITY":0.000175,"INCLINATION":87.8969,"RA_OF_ASC_NODE":268.0227,"ARG_OF_PERICENTER":94.9797,"MEAN_ANOMALY":265.1533,"EPHEMERIS_TYPE":0,"CLASSIFICATION_TYPE":"U","NORAD_CAT_ID":48792,"ELEMENT_SET_NO":999,"REV_AT_EPOCH":23855,"BSTAR":-0.00011702,"MEAN_MOTION_DOT":-3.1e-07,"MEAN_MOTION_DDOT":0.0},{"OBJECT_NAME":"ONEWEB-0226","OBJECT_ID":"2021-045AC","EPOCH":"2026-05-04T02:08:54.039840","MEAN_MOTION":13.15549623,"ECCENTRICITY":0.0002008,"INCLINATION":87.8965,"RA_OF_ASC_NODE":267.9841,"ARG_OF_PERICENTER":91.3252,"MEAN_ANOMALY":268.8108,"EPHEMERIS_TYPE":0,"CLASSIFICATION_TYPE":"U","NORAD_CAT_ID":48793,"ELEMENT_SET_NO":999,"REV_AT_EPOCH":23855,"BSTAR":0.00024249999999999999,"MEAN_MOTION_DOT":1.04e-06,"MEAN_MOTION_DDOT":0.0},{"OBJECT_NAME":"ONEWEB-0224","OBJECT_ID":"2021-045AD","EPOCH":"2026-05-04T03:05:57.682176","MEAN_MOTION":13.15548398,"ECCENTRICITY":0.0001008,"INCLINATION":87.8961,"RA_OF_ASC_NODE":268.0119,"ARG_OF_PERICENTER":83.8027,"MEAN_ANOMALY":276.3218,"EPHEMERIS_TYPE":0,"CLASSIFICATION_TYPE":"U","NORAD_CAT_ID":48794,"ELEMENT_SET_NO":999,"REV_AT_EPOCH":23848,"BSTAR":-0.00015441,"MEAN_MOTION_DOT":-4.5e-07,"MEAN_MOTION_DDOT":0.0}]