ONEWEB-0229             
1 48779U 21045N   26124.10061049  .00000021  00000+0  22257-4 0  9997
2 48779  87.8970 267.9773 0001935  95.3920 264.7431 13.15550055238610
ONEWEB-0228             
1 48780U 21045P   26124.13403676 -.00000006  00000+0 -50141-4 0  9996
2 48780  87.8978 267.9602 0001811  94.8245 265.3092 13.15548261238535
ONEWEB-0232             
1 48781U 21045Q   26124.10854596 -.00000120  00000+0 -35207-3 0  9997
2 48781  87.8977 267.9673 0001755  97.3260 262.8070 13.15548757238858
ONEWEB-0231             
1 48782U 21045R   26124.16241637  .00000174  00000+0  42698-3 0  9999
2 48782  87.8962 267.9741 0001756  89.4889 270.6443 13.15549627238554
ONEWEB-0234             
1 48783U 21045S   26124.12423618 -.00000176  00000+0 -50182-3 0  9998
2 48783  87.8968 267.9611 0001115 117.9156 242.2088 13.15549743238683
ONEWEB-0238             
1 48784U 21045T   26124.12453545 -.00000168  00000+0 -47976-3 0  9999
2 48784  87.8972 267.9533 0001441 106.1550 253.9739 13.15547391238580
ONEWEB-0240             
1 48785U 21045U   26124.14578213  .00000113  00000+0  26658-3 0  9994
2 48785  87.8976 267.9593 0001600  88.5782 271.5531 13.15547865238614
ONEWEB-0246             
1 48786U 21045V   26124.14023617  .00000006  00000+0 -19038-4 0  9995
2 48786  87.8971 267.9662 0001938  96.0049 264.1302 13.15548440238480
ONEWEB-0210             
1 48787U 21045W   26124.11488529 -.00000170  00000+0 -48482-3 0  9997
2 48787  87.8973 267.9681 0002558  83.5687 276.5734 13.15548061238522
ONEWEB-0214             
1 48788U 21045X   26124.12359596 -.00000140  00000+0 -40584-3 0  9992
2 48788  87.8971 267.9628 0002205  94.5578 265.5805 13.15547441238496
ONEWEB-0221             
1 48789U 21045Y   26124.13071840 -.00000107  00000+0 -31914-3 0  9997
2 48789  87.8971 267.9707 0001822  91.4907 268.6431 13.15549017238581
ONEWEB-0213             
1 48790U 21045Z   26124.11963256 -.00000094  00000+0 -28309-3 0  9997
2 48790  87.8970 267.9763 0001948  89.0745 271.0608 13.15548774238646
ONEWEB-0212             
1 48791U 21045AA  26123.86848118 -.00000019  00000+0 -85739-4 0  9996
2 48791  87.8971 268.0209 0001791  98.8216 261.3118 13.15546648238604
ONEWEB-0227             
1 48792U 21045AB  26123.86767751 -.00000031  00000+0 -11702-3 0  9992
2 48792  87.8969 268.0227 0001750  94.9797 265.1533 13.15549517238553
ONEWEB-0226             
1 48793U 21045AC  26124.08951435  .00000104  00000+0  24250-3 0  9993
2 48793  87.8965 267.9841 0002008  91.3252 268.8108 13.15549623238550
ONEWEB-0224             
1 48794U 21045AD  26124.12913984 -.00000045  00000+0 -15441-3 0  9994
2 48794  87.8961 268.0119 0001008  83.8027 276.3218 13.15548398238488
